KUZGTU 1 (RS47S)        
1 57217U 23091AV  26199.61865316  .00005875  00000+0  20155-3 0  9990
2 57217  97.5042 264.4310 0009726 353.7598   6.3520 15.30513820169184
SONATE-2                
1 59112U 24043Q   26198.93003248  .00025616  00000+0  30609-3 0  9996
2 59112  97.5566 351.2719 0006759  98.0994 262.1029 15.60980545132687
MESAT1                  
1 60209U 24125G   26199.50106527  .00041462  00000+0  39338-3 0  9999
2 60209  97.2234  57.7719 0010849 102.6251 257.6223 15.66729735114465
OOV-CUBE (TUBSAT-30)    
1 60240U 24128F   26199.32762964  .00000912  00000+0  82295-4 0  9996
2 60240  61.9941 116.9785 0040721 140.6907 219.7153 15.02880941110796
COLIBRI-S (RS67S)       
1 61746U 24199M   26199.59964534  .00012538  00000+0  23347-3 0  9991
2 61746  97.2939  73.7609 0009364 150.6902 209.4876 15.48940896142278
HORS 3 (RS81S)          
1 61753U 24199U   26199.59993688  .00021891  00000+0  30325-3 0  9997
2 61753  97.2921  76.1086 0007486 145.5336 214.6406 15.57071556142444
HORS 4 (RS82S)          
1 61754U 24199V   26199.64961997  .00034746  00000+0  38868-3 0  9995
2 61754  97.2863  77.5828 0007317 138.6967 221.4846 15.62628493142555
SIT-2086                
1 61764U 24199AF  26199.61636132  .00023222  00000+0  34457-3 0  9990
2 61764  97.2880  76.4925 0008483 134.1880 226.0073 15.55182610139312
HYPERVIEW 1G (RS66S)    
1 61772U 24199AP  26199.08068705  .00182305  00000+0  71876-3 0  9999
2 61772  97.2776  80.5823 0008253 141.7677 218.4181 15.86326845139556
ALTAIR (RS65S)          
1 61779U 24199AW  26199.61619093  .00005920  00000+0  16255-3 0  9994
2 61779  97.2985  68.7650 0012412 184.0299 176.0848 15.37550303141942
ASRTU-1 (AO-123)        
1 61781U 24199AY  26199.63293923  .00004001  00000+0  11584-3 0  9998
2 61781  97.2955  68.0225 0013386 187.9170 172.1865 15.36082650138759
SAMSAT-IONOSPHERE (RS7*)
1 61784U 24199BB  26199.63841263  .00032461  00000+0  39617-3 0  9995
2 61784  97.2886  76.3218 0009578 149.4687 210.7130 15.60348677142461
RTU MIREA 1 (RS51S)     
1 61785U 24199BC  26199.64960587  .00042573  00000+0  44029-3 0  9996
2 61785  97.2871  77.3446 0009620 144.7068 215.4830 15.64573560139380
TEVEL2-4                
1 63213U 25052D   26199.66508883  .00010338  00000+0  30055-3 0  9990
2 63213  97.3855  96.1261 0003268  45.1827 314.9681 15.35641020 74948
TEVEL2-5                
1 63214U 25052E   26199.23309628  .00009887  00000+0  28934-3 0  9990
2 63214  97.3855  95.6318 0003315  47.1094 313.0428 15.35444756 74875
TEVEL2-6                
1 63215U 25052F   26199.24614078  .00010380  00000+0  30399-3 0  9998
2 63215  97.3858  95.6297 0003376  49.4265 310.7272 15.35408471 74872
TEVEL2-1                
1 63217U 25052H   26199.22116709  .00009517  00000+0  28401-3 0  9997
2 63217  97.3830  95.1910 0004044  53.7107 306.4510 15.34835684 74851
TEVEL2-3                
1 63218U 25052J   26199.27979625  .00009943  00000+0  29602-3 0  9994
2 63218  97.3839  95.2758 0003778  55.7421 304.4179 15.34900151 74868
TEVEL2-2                
1 63219U 25052K   26199.28646794  .00009641  00000+0  28757-3 0  9999
2 63219  97.3833  95.2592 0004077  53.6322 306.5297 15.34848337 74860
OTP-2                   
1 63235U 25052AB  26199.21431650  .00003324  00000+0  13858-3 0  9991
2 63235  97.3825  91.1834 0008022  62.7166 297.4887 15.24359126 74599
TEVEL2-9                
1 63237U 25052AD  26199.50072565  .00008821  00000+0  28075-3 0  9995
2 63237  97.3892  94.7793 0007381  47.4946 312.6919 15.32793889 74820
TEVEL2-7                
1 63238U 25052AE  26199.22140916  .00008564  00000+0  27537-3 0  9997
2 63238  97.3896  94.4025 0007522  48.3385 311.8500 15.32471582 74778
TEVEL2-8                
1 63239U 25052AF  26199.22996041  .00008487  00000+0  27307-3 0  9995
2 63239  97.3899  94.3878 0007555  49.4075 310.7823 15.32456829 74774
INNOSAT 16 (RS92S7)     
1 64878U 25155C   26199.61608792  .00003033  00000+0  12149-3 0  9995
2 64878  97.4588 166.6545 0012413  78.2376 282.0254 15.25759596 85463
GEOSCAN 6 (RS92S6)      
1 64879U 25155D   26199.56532304  .00005470  00000+0  18678-3 0  9995
2 64879  97.4579 168.2550 0009838  72.6233 287.6083 15.30692819 85567
GEOSCAN 1 (RS92S1)      
1 64880U 25155E   26199.62029129  .00005706  00000+0  19086-3 0  9996
2 64880  97.4576 168.4868 0009766  72.7411 287.4898 15.31344363 85582
239ALFEROV (RS61S)      
1 64881U 25155F   26199.60825525  .00008159  00000+0  25227-3 0  9998
2 64881  97.4575 169.1462 0009499  72.7558 287.4724 15.33728073 85624
GEOSCAN 2 (RS92S2)      
1 64890U 25155Q   26199.60858898  .00005939  00000+0  19703-3 0  9992
2 64890  97.4575 168.6397 0008882  63.1379 297.0769 15.31602203 85591
GEOSCAN 5 (RS92S5)      
1 64891U 25155R   26199.59089616  .00007986  00000+0  24472-3 0  9998
2 64891  97.4567 169.2779 0008540  77.6771 282.5428 15.34031507 85633
GEOSCAN 4 (RS92S4)      
1 64892U 25155S   26199.63700868  .00007983  00000+0  24332-3 0  9995
2 64892  97.4572 169.3825 0008432  77.7634 282.4552 15.34202264 85640
