OBJECT_NAME,OBJECT_ID,EPOCH,MEAN_MOTION,ECCENTRICITY,INCLINATION,RA_OF_ASC_NODE,ARG_OF_PERICENTER,MEAN_ANOMALY,EPHEMERIS_TYPE,CLASSIFICATION_TYPE,NORAD_CAT_ID,ELEMENT_SET_NO,REV_AT_EPOCH,BSTAR,MEAN_MOTION_DOT,MEAN_MOTION_DDOT
KUZGTU 1 (RS47S),2023-091AV,2026-07-18T14:50:51.633024,15.30513820,.00097265,97.5042,264.4310,353.7598,6.3520,0,U,57217,999,16918,.20154523E-3,.5875E-4,0
SONATE-2,2024-043Q,2026-07-17T22:19:14.806272,15.60980545,.00067591,97.5566,351.2719,98.0994,262.1029,0,U,59112,999,13268,.30609144E-3,.25616E-3,0
MESAT1,2024-125G,2026-07-18T12:01:32.039328,15.66729735,.00108494,97.2234,57.7719,102.6251,257.6223,0,U,60209,999,11446,.39338041E-3,.41462E-3,0
OOV-CUBE (TUBSAT-30),2024-128F,2026-07-18T07:51:47.200896,15.02880941,.00407214,61.9941,116.9785,140.6907,219.7153,0,U,60240,999,11079,.8229489E-4,.912E-5,0
COLIBRI-S (RS67S),2024-199M,2026-07-18T14:23:29.357376,15.48940896,.00093646,97.2939,73.7609,150.6902,209.4876,0,U,61746,999,14227,.23346569E-3,.12538E-3,0
HORS 3 (RS81S),2024-199U,2026-07-18T14:23:54.546432,15.57071556,.00074865,97.2921,76.1086,145.5336,214.6406,0,U,61753,999,14244,.30324601E-3,.21891E-3,0
HORS 4 (RS82S),2024-199V,2026-07-18T15:35:27.165408,15.62628493,.00073178,97.2863,77.5828,138.6967,221.4846,0,U,61754,999,14255,.38867867E-3,.34746E-3,0
SIT-2086,2024-199AF,2026-07-18T14:47:33.618048,15.55182610,.00084834,97.2880,76.4925,134.1880,226.0073,0,U,61764,999,13931,.34456545E-3,.23222E-3,0
HYPERVIEW 1G (RS66S),2024-199AP,2026-07-18T01:56:11.361120,15.86326845,.00082531,97.2776,80.5823,141.7677,218.4181,0,U,61772,999,13955,.71875916E-3,.182305E-2,0
ALTAIR (RS65S),2024-199AW,2026-07-18T14:47:18.896352,15.37550303,.00124128,97.2985,68.7650,184.0299,176.0848,0,U,61779,999,14194,.16255048E-3,.592E-4,0
ASRTU-1 (AO-123),2024-199AY,2026-07-18T15:11:25.949472,15.36082650,.00133868,97.2955,68.0225,187.9170,172.1865,0,U,61781,999,13875,.11583817E-3,.4001E-4,0
SAMSAT-IONOSPHERE (RS75S),2024-199BB,2026-07-18T15:19:18.851232,15.60348677,.00095786,97.2886,76.3218,149.4687,210.7130,0,U,61784,999,14246,.3961744E-3,.32461E-3,0
RTU MIREA 1 (RS51S),2024-199BC,2026-07-18T15:35:25.947168,15.64573560,.00096203,97.2871,77.3446,144.7068,215.4830,0,U,61785,999,13938,.44028552E-3,.42573E-3,0
TEVEL2-4,2025-052D,2026-07-18T15:57:43.674912,15.35641020,.00032682,97.3855,96.1261,45.1827,314.9681,0,U,63213,999,7494,.30055382E-3,.10338E-3,0
TEVEL2-5,2025-052E,2026-07-18T05:35:39.518592,15.35444756,.00033154,97.3855,95.6318,47.1094,313.0428,0,U,63214,999,7487,.28934081E-3,.9887E-4,0
TEVEL2-6,2025-052F,2026-07-18T05:54:26.563392,15.35408471,.00033769,97.3858,95.6297,49.4265,310.7272,0,U,63215,999,7487,.30399083E-3,.1038E-3,0
TEVEL2-1,2025-052H,2026-07-18T05:18:28.836576,15.34835684,.0004044,97.3830,95.1910,53.7107,306.4510,0,U,63217,999,7485,.28401311E-3,.9517E-4,0
TEVEL2-3,2025-052J,2026-07-18T06:42:54.396000,15.34900151,.00037787,97.3839,95.2758,55.7421,304.4179,0,U,63218,999,7486,.296017E-3,.9943E-4,0
TEVEL2-2,2025-052K,2026-07-18T06:52:30.830016,15.34848337,.00040779,97.3833,95.2592,53.6322,306.5297,0,U,63219,999,7486,.28756579E-3,.9641E-4,0
OTP-2,2025-052AB,2026-07-18T05:08:36.945600,15.24359126,.00080222,97.3825,91.1834,62.7166,297.4887,0,U,63235,999,7459,.13858363E-3,.3324E-4,0
TEVEL2-9,2025-052AD,2026-07-18T12:01:02.696160,15.32793889,.00073819,97.3892,94.7793,47.4946,312.6919,0,U,63237,999,7482,.28074886E-3,.8821E-4,0
TEVEL2-7,2025-052AE,2026-07-18T05:18:49.751424,15.32471582,.00075221,97.3896,94.4025,48.3385,311.8500,0,U,63238,999,7477,.27537295E-3,.8564E-4,0
TEVEL2-8,2025-052AF,2026-07-18T05:31:08.579424,15.32456829,.00075556,97.3899,94.3878,49.4075,310.7823,0,U,63239,999,7477,.27307109E-3,.8487E-4,0
INNOSAT 16 (RS92S7),2025-155C,2026-07-18T14:47:09.996288,15.25759596,.00124139,97.4588,166.6545,78.2376,282.0254,0,U,64878,999,8546,.12148523E-3,.3033E-4,0
GEOSCAN 6 (RS92S6),2025-155D,2026-07-18T13:34:03.910656,15.30692819,.00098384,97.4579,168.2550,72.6233,287.6083,0,U,64879,999,8556,.18677779E-3,.547E-4,0
GEOSCAN 1 (RS92S1),2025-155E,2026-07-18T14:53:13.167456,15.31344363,.00097661,97.4576,168.4868,72.7411,287.4898,0,U,64880,999,8558,.19086194E-3,.5706E-4,0
239ALFEROV (RS61S),2025-155F,2026-07-18T14:35:53.253600,15.33728073,.0009499,97.4575,169.1462,72.7558,287.4724,0,U,64881,999,8562,.25227493E-3,.8159E-4,0
GEOSCAN 2 (RS92S2),2025-155Q,2026-07-18T14:36:22.087872,15.31602203,.00088821,97.4575,168.6397,63.1379,297.0769,0,U,64890,999,8559,.19702576E-3,.5939E-4,0
GEOSCAN 5 (RS92S5),2025-155R,2026-07-18T14:10:53.428224,15.34031507,.00085406,97.4567,169.2779,77.6771,282.5428,0,U,64891,999,8563,.24471611E-3,.7986E-4,0
GEOSCAN 4 (RS92S4),2025-155S,2026-07-18T15:17:17.549952,15.34202264,.00084322,97.4572,169.3825,77.7634,282.4552,0,U,64892,999,8564,.24332079E-3,.7983E-4,0
